[{"OBJECT_NAME":"STARLINK-3716","OBJECT_ID":"2022-029E","EPOCH":"2026-03-09T14:50:02.581152","MEAN_MOTION":15.0883684,"ECCENTRICITY":0.00013199,"INCLINATION":53.2165,"RA_OF_ASC_NODE":89.4402,"ARG_OF_PERICENTER":97.6812,"MEAN_ANOMALY":262.433,"EPHEMERIS_TYPE":0,"CLASSIFICATION_TYPE":"U","NORAD_CAT_ID":52092,"ELEMENT_SET_NO":999,"REV_AT_EPOCH":22064,"BSTAR":1.964301e-5,"MEAN_MOTION_DOT":2.5e-7,"MEAN_MOTION_DDOT":0},{"OBJECT_NAME":"OBJECT J","OBJECT_ID":"2017-042J","EPOCH":"2026-03-09T23:17:19.167936","MEAN_MOTION":15.08203331,"ECCENTRICITY":0.00078186,"INCLINATION":97.4246,"RA_OF_ASC_NODE":235.0467,"ARG_OF_PERICENTER":81.5059,"MEAN_ANOMALY":278.7055,"EPHEMERIS_TYPE":0,"CLASSIFICATION_TYPE":"U","NORAD_CAT_ID":42833,"ELEMENT_SET_NO":999,"REV_AT_EPOCH":47205,"BSTAR":0.00039182004,"MEAN_MOTION_DOT":6.006e-5,"MEAN_MOTION_DDOT":0}]
